[{"OBJECT_NAME":"HIBARI","OBJECT_ID":"2021-102F","EPOCH":"2026-03-09T16:55:51.090816","MEAN_MOTION":15.29554512,"ECCENTRICITY":0.00120742,"INCLINATION":97.3381,"RA_OF_ASC_NODE":115.826,"ARG_OF_PERICENTER":186.5211,"MEAN_ANOMALY":173.5875,"EPHEMERIS_TYPE":0,"CLASSIFICATION_TYPE":"U","NORAD_CAT_ID":49400,"ELEMENT_SET_NO":999,"REV_AT_EPOCH":23897,"BSTAR":0.00042758039,"MEAN_MOTION_DOT":0.00012206,"MEAN_MOTION_DDOT":0},{"OBJECT_NAME":"STARLINK-32158","OBJECT_ID":"2024-131N","EPOCH":"2026-03-09T23:15:48.984480","MEAN_MOTION":15.30193232,"ECCENTRICITY":0.00011615,"INCLINATION":53.161,"RA_OF_ASC_NODE":50.9693,"ARG_OF_PERICENTER":79.2155,"MEAN_ANOMALY":280.8976,"EPHEMERIS_TYPE":0,"CLASSIFICATION_TYPE":"U","NORAD_CAT_ID":60267,"ELEMENT_SET_NO":999,"REV_AT_EPOCH":9166,"BSTAR":5.143326e-5,"MEAN_MOTION_DOT":1.164e-5,"MEAN_MOTION_DDOT":0}]
